GLOBALSTAR M094 [+]     
1 39074U 13005C   24006.96942121 -.00000102  00000+0  74837-5 0  9995
2 39074  51.9982 347.3395 0000205 109.1602 250.9286 12.62270764505794
GLOBALSTAR M096 [+]     
1 39075U 13005D   24006.50771389 -.00000109  00000+0 -29080-4 0  9999
2 39075  52.0090  36.8482 0000610 153.1448 206.9450 12.62267335504659
GLOBALSTAR M078 [+]     
1 39076U 13005E   24007.51065353 -.00000120  00000+0 -88551-4 0  9990
2 39076  51.9871 119.0197 0001761 102.6182 257.4881 12.62258502503614
GLOBALSTAR M095 [+]     
1 39077U 13005F   24006.74496275 -.00000106  00000+0 -10092-4 0  9995
2 39077  51.9796 118.8088 0001528 120.8349 239.2668 12.62272294503160
GLOBALSTAR M087 [+]     
1 52888U 22064A   24006.58589532 -.00000098  00000+0  58373-4 0  9999
2 52888  51.9768  55.3588 0008955 312.7515  47.2631 13.37561854 75765
